OBJECT_NAME,OBJECT_ID,EPOCH,MEAN_MOTION,ECCENTRICITY,INCLINATION,RA_OF_ASC_NODE,ARG_OF_PERICENTER,MEAN_ANOMALY,EPHEMERIS_TYPE,CLASSIFICATION_TYPE,NORAD_CAT_ID,ELEMENT_SET_NO,REV_AT_EPOCH,BSTAR,MEAN_MOTION_DOT,MEAN_MOTION_DDOT
EUTELSAT 33F,2006-032A,2026-06-18T04:31:29.729856,1.00270956,.00037472,1.6651,82.2315,2.6210,282.5316,0,U,29270,999,4731,0,.149E-5,0
JCSAT-3A,2006-033A,2026-06-18T06:41:11.459040,1.00270973,.00021849,0.0144,316.9922,142.9549,34.8653,0,U,29272,999,4775,0,-.351E-5,0
KOREASAT 5 (MUGUNGWHA 5),2006-034A,2026-06-18T06:36:41.889312,1.00269187,.00015281,1.7890,82.9727,53.0943,342.6713,0,U,29349,999,4133,0,-.364E-5,0
DIRECTV 9S,2006-043A,2026-06-18T05:35:50.942400,1.00270942,.00049527,2.4244,80.8904,13.3613,154.9886,0,U,29494,999,5139,0,-.12E-5,0
OPTUS D1,2006-043B,2026-06-18T06:48:03.300192,1.00271491,.00033924,3.0385,79.6432,359.3675,81.5080,0,U,29495,999,7213,0,-.191E-5,0
BADR-4,2006-051A,2026-06-18T04:31:52.193856,1.00271552,.00047614,2.0082,81.1094,356.6779,291.0412,0,U,29526,999,5127,0,.149E-5,0
WILDBLUE-1,2006-054A,2026-06-18T07:15:28.338048,1.00270899,.00013351,2.8069,80.4695,8.7884,174.9387,0,U,29643,999,5380,0,-.56E-6,0
SKYNET 5A,2007-007B,2026-06-18T03:06:35.521920,1.00268795,.00040655,5.3027,73.7304,20.0946,314.3832,0,U,30794,999,7070,0,-.279E-5,0
ANIK F3,2007-009A,2026-06-18T07:21:59.036256,1.00272409,.00024988,1.2013,83.8358,2.6438,171.8285,0,U,31102,999,4657,0,-.7E-7,0
ASTRA 1L,2007-016A,2026-06-18T04:15:01.308672,1.00271097,.0005221,1.3252,81.5713,12.3538,211.7728,0,U,31306,999,4499,0,-.191E-5,0
GALAXY 17 (G-17),2007-016B,2026-06-18T03:57:47.961216,1.00271746,.00046367,2.9755,79.8884,18.2137,142.7427,0,U,31307,999,6981,0,-.213E-5,0
INTELSAT 11 (IS-11),2007-044B,2026-06-18T06:39:11.649888,0.99050334,.00024057,3.5691,78.6561,89.4126,319.3263,0,U,32253,999,6846,0,-.224E-5,0
WGS F1 (USA 195),2007-046A,2026-06-18T04:09:54.300096,1.00268551,.0000138,0.0409,87.3660,37.6088,161.4067,0,U,32258,999,5234,0,-.273E-5,0
SKYNET 5B,2007-056B,2026-06-18T01:31:38.679168,1.00275169,.00039449,5.2543,73.4959,7.8913,232.9553,0,U,32294,999,6820,0,.132E-5,0
ASTRA 4A,2007-057A,2026-06-18T04:23:23.008416,1.00272026,.00021805,0.0163,22.7742,67.4794,246.8124,0,U,32299,999,5165,0,.27E-6,0
HORIZONS-2,2007-063B,2026-06-18T04:01:02.648928,1.00268220,.00037981,2.6055,80.6145,3.2738,168.9591,0,U,32388,999,6782,0,-.26E-5,0
THURAYA-3,2008-001A,2026-06-18T04:43:28.582176,1.00007447,.00015783,5.9916,35.8061,156.9083,219.6442,0,U,32404,999,6750,0,-.48E-6,0
THOR 5,2008-006A,2026-06-18T04:21:53.150688,1.00270347,.00024654,0.0108,349.1097,106.5324,235.5008,0,U,32487,999,6732,0,0,0
AMC-14,2008-011A,2026-06-18T02:58:13.823904,1.00355113,.0045612,24.0055,20.5077,7.2417,349.0384,0,U,32708,999,6817,0,-.63E-6,0
DIRECTV 11,2008-013A,2026-06-17T14:12:27.774432,1.00268228,.00002521,0.0106,249.6020,114.3635,15.8127,0,U,32729,999,4559,0,-.13E-5,0
ICO G1,2008-016A,2026-06-17T07:46:38.554176,1.00271360,.0002328,5.5310,36.1349,35.8405,217.4072,0,U,32763,999,6654,0,-.179E-5,0
VINASAT-1,2008-018A,2026-06-18T06:42:18.851040,1.00269461,.00012079,0.0209,307.6839,150.2838,41.0718,0,U,32767,999,6660,0,-.334E-5,0
STAR ONE C2,2008-018B,2026-06-18T04:03:32.410368,1.00268667,.0002602,1.2445,82.4541,15.2240,164.5969,0,U,32768,999,6666,0,-.283E-5,0
AMOS-3,2008-022A,2026-06-18T04:33:22.050720,1.00477201,.0002031,0.4588,86.1979,71.7356,216.4745,0,U,32794,999,8234,0,.132E-5,0
GALAXY 18 (G-18),2008-024A,2026-06-18T00:21:37.024704,1.00272649,.00027556,0.0131,52.1091,35.6237,60.9364,0,U,32951,999,4586,0,.19E-6,0
ZHONGXING-9,2008-028A,2026-06-18T03:05:43.105632,1.00269118,.00038407,0.7717,85.3080,342.4526,337.4117,0,U,33051,999,6604,0,-.254E-5,0
SKYNET 5C,2008-030A,2026-06-18T04:16:53.630400,1.00271613,.00039695,3.7923,77.0291,17.8386,217.9837,0,U,33055,999,6596,0,-.147E-5,0
TURKSAT 3A,2008-030B,2026-06-18T04:33:59.491296,1.00271037,.00050651,0.0593,79.9907,351.3789,305.5313,0,U,33056,999,5236,0,.14E-5,0
INTELSAT 25 (IS-25),2008-034A,2026-06-18T06:37:56.769600,0.99034293,.0003406,2.7136,80.3596,60.7324,341.7156,0,U,33153,999,6570,0,-.196E-5,0
ECHOSTAR 11,2008-035A,2026-06-18T05:33:21.180960,1.00270464,.0002554,1.0088,84.1645,340.5544,175.2984,0,U,33207,999,5122,0,-.64E-6,0
SUPERBIRD-C2,2008-038A,2026-06-18T06:43:33.731328,1.00272594,.00059543,2.3647,81.2484,25.4787,36.6756,0,U,33274,999,10574,0,-.313E-5,0
INMARSAT 4-F3,2008-039A,2026-06-18T07:06:38.536704,1.00271462,.00028147,4.2935,31.6237,59.6315,183.9451,0,U,33278,999,4655,0,-.148E-5,0
