EUTELSAT 33F            
1 29270U 06032A   26169.18853854  .00000149  00000+0  00000+0 0  9999
2 29270   1.6651  82.2315 0003747   2.6210 282.5316  1.00270956 47316
JCSAT-3A                
1 29272U 06033A   26169.27860485 -.00000351  00000+0  00000+0 0  9996
2 29272   0.0144 316.9922 0002184 142.9549  34.8653  1.00270973 47755
KOREASAT 5 (MUGUNGWHA 5)
1 29349U 06034A   26169.27548483 -.00000364  00000+0  00000+0 0  9997
2 29349   1.7890  82.9727 0001528  53.0943 342.6713  1.00269187 41330
DIRECTV 9S              
1 29494U 06043A   26169.23322850 -.00000120  00000+0  00000+0 0  9992
2 29494   2.4244  80.8904 0004952  13.3613 154.9886  1.00270942 51396
OPTUS D1                
1 29495U 06043B   26169.28337153 -.00000191  00000+0  00000+0 0  9998
2 29495   3.0385  79.6432 0003392 359.3675  81.5080  1.00271491 72136
BADR-4                  
1 29526U 06051A   26169.18879854  .00000149  00000+0  00000+0 0  9992
2 29526   2.0082  81.1094 0004761 356.6779 291.0412  1.00271552 51279
WILDBLUE-1              
1 29643U 06054A   26169.30241132 -.00000056  00000+0  00000+0 0  9999
2 29643   2.8069  80.4695 0001335   8.7884 174.9387  1.00270899 53801
SKYNET 5A               
1 30794U 07007B   26169.12957780 -.00000279  00000+0  00000+0 0  9997
2 30794   5.3027  73.7304 0004065  20.0946 314.3832  1.00268795 70708
ANIK F3                 
1 31102U 07009A   26169.30693329 -.00000007  00000+0  00000+0 0  9998
2 31102   1.2013  83.8358 0002498   2.6438 171.8285  1.00272409 46576
ASTRA 1L                
1 31306U 07016A   26169.17709848 -.00000191  00000+0  00000+0 0  9995
2 31306   1.3252  81.5713 0005221  12.3538 211.7728  1.00271097 44996
GALAXY 17 (G-17)        
1 31307U 07016B   26169.16513844 -.00000213  00000+0  00000+0 0  9999
2 31307   2.9755  79.8884 0004636  18.2137 142.7427  1.00271746 69818
INTELSAT 11 (IS-11)     
1 32253U 07044B   26169.27721817 -.00000224  00000+0  00000+0 0  9996
2 32253   3.5691  78.6561 0002405  89.4126 319.3263  0.99050334 68469
WGS F1 (USA 195)        
1 32258U 07046A   26169.17354514 -.00000273  00000+0  00000+0 0  9992
2 32258   0.0409  87.3660 0000138  37.6088 161.4067  1.00268551 52346
SKYNET 5B               
1 32294U 07056B   26169.06364212  .00000132  00000+0  00000+0 0  9990
2 32294   5.2543  73.4959 0003944   7.8913 232.9553  1.00275169 68202
ASTRA 4A                
1 32299U 07057A   26169.18290519  .00000027  00000+0  00000+0 0  9990
2 32299   0.0163  22.7742 0002180  67.4794 246.8124  1.00272026 51653
HORIZONS-2              
1 32388U 07063B   26169.16739177 -.00000260  00000+0  00000+0 0  9992
2 32388   2.6055  80.6145 0003798   3.2738 168.9591  1.00268220 67821
THURAYA-3               
1 32404U 08001A   26169.19685859 -.00000048  00000+0  00000+0 0  9998
2 32404   5.9916  35.8061 0001578 156.9083 219.6442  1.00007447 67500
THOR 5                  
1 32487U 08006A   26169.18186517  .00000000  00000+0  00000+0 0  9997
2 32487   0.0108 349.1097 0002465 106.5324 235.5008  1.00270347 67321
AMC-14                  
1 32708U 08011A   26169.12377111 -.00000063  00000+0  00000+0 0  9995
2 32708  24.0055  20.5077 0045612   7.2417 349.0384  1.00355113 68170
DIRECTV 11              
1 32729U 08013A   26168.59198813 -.00000130  00000+0  00000+0 0  9995
2 32729   0.0106 249.6020 0000252 114.3635  15.8127  1.00268228 45593
ICO G1                  
1 32763U 08016A   26168.32405734 -.00000179  00000+0  00000+0 0  9993
2 32763   5.5310  36.1349 0002328  35.8405 217.4072  1.00271360 66547
VINASAT-1               
1 32767U 08018A   26169.27938485 -.00000334  00000+0  00000+0 0  9991
2 32767   0.0209 307.6839 0001207 150.2838  41.0718  1.00269461 66609
STAR ONE C2             
1 32768U 08018B   26169.16912512 -.00000283  00000+0  00000+0 0  9996
2 32768   1.2445  82.4541 0002602  15.2240 164.5969  1.00268667 66662
AMOS-3                  
1 32794U 08022A   26169.18983855  .00000132  00000+0  00000+0 0  9992
2 32794   0.4588  86.1979 0002031  71.7356 216.4745  1.00477201 82345
GALAXY 18 (G-18)        
1 32951U 08024A   26169.01501186  .00000019  00000+0  00000+0 0  9998
2 32951   0.0131  52.1091 0002755  35.6237  60.9364  1.00272649 45862
ZHONGXING-9             
1 33051U 08028A   26169.12897113 -.00000254  00000+0  00000+0 0  9996
2 33051   0.7717  85.3080 0003840 342.4526 337.4117  1.00269118 66041
SKYNET 5C               
1 33055U 08030A   26169.17839850 -.00000147  00000+0  00000+0 0  9993
2 33055   3.7923  77.0291 0003969  17.8386 217.9837  1.00271613 65962
TURKSAT 3A              
1 33056U 08030B   26169.19027189  .00000140  00000+0  00000+0 0  9992
2 33056   0.0593  79.9907 0005065 351.3789 305.5313  1.00271037 52366
INTELSAT 25 (IS-25)     
1 33153U 08034A   26169.27635150 -.00000196  00000+0  00000+0 0  9998
2 33153   2.7136  80.3596 0003406  60.7324 341.7156  0.99034293 65706
ECHOSTAR 11             
1 33207U 08035A   26169.23149515 -.00000064  00000+0  00000+0 0  9994
2 33207   1.0088  84.1645 0002554 340.5544 175.2984  1.00270464 51223
SUPERBIRD-C2            
1 33274U 08038A   26169.28025152 -.00000313  00000+0  00000+0 0  9993
2 33274   2.3647  81.2484 0005954  25.4787  36.6756  1.00272594105746
INMARSAT 4-F3           
1 33278U 08039A   26169.29627936 -.00000148  00000+0  00000+0 0  9993
2 33278   4.2935  31.6237 0002814  59.6315 183.9451  1.00271462 46558
